CZ-4B R/B               
1 66989U 25289B   25365.19998111  .00155526  94552-5  68237-3 0  9997
2 66989  97.5222  71.9280 0134672 292.8080  65.9004 15.72071988  3461
TJS-22                  
1 66990U 25290A   25365.33131380  .00000012  00000+0  00000+0 0  9992
2 66990   1.9419 285.0452 0003330 344.4396  16.2518  1.00272489   347
CZ-3B R/B               
1 66991U 25290B   25349.72468800  .00057911 -20514-6  75879-3 0  9998
2 66991  28.4636 300.4666 7240884 182.7002 168.6250  2.38388611   165
2025-292A               
1 66993U 25292A   25365.62810338  .00009036  00000+0  64475-3 0  9991
2 66993  97.6502  77.9937 0015058 205.6698 154.3782 15.04676956  3238
2025-292B               
1 66994U 25292B   25365.62742837  .00010086  00000+0  71793-3 0  9998
2 66994  97.6514  77.9970 0014855 205.9788 154.0694 15.04736311  3237
2025-292C               
1 66995U 25292C   25365.62766446  .00010813  00000+0  77116-3 0  9994
2 66995  97.6504  77.9943 0015029 204.1535 155.8988 15.04644309  3232
2025-292D               
1 66996U 25292D   25365.62688539  .00007686  00000+0  54862-3 0  9998
2 66996  97.6501  77.9941 0014234 208.1263 151.9196 15.04723981  3239
2025-292E               
1 66997U 25292E   25365.62549140  .00008950  00000+0  63558-3 0  9990
2 66997  97.6523  78.0014 0014572 209.5080 150.5326 15.04862067  3222
2025-292F               
1 66998U 25292F   25365.62303000  .00010890  00000+0  76765-3 0  9994
2 66998  97.6545  78.0099 0015686 210.1082 149.9244 15.05069479  3236
2025-292G               
1 66999U 25292G   25365.62212009  .00010852  00000+0  76384-3 0  9998
2 66999  97.6555  78.0135 0015170 211.9248 148.1060 15.05134281  3231
2025-292H               
1 67000U 25292H   25365.62182375  .00012896  00000+0  90533-3 0  9996
2 67000  97.6569  78.0173 0015084 211.9236 148.1077 15.05189445  3109
2025-292J               
1 67001U 25292J   25365.56394446  .00011310  00000+0  80828-3 0  9990
2 67001  97.6532  77.9339 0015495 202.4579 157.5970 15.04547369  3224
