CCSDS_OMM_VERS = 2.0
CREATION_DATE  = 
ORIGINATOR     = 

OBJECT_NAME    = CZ-4B R/B
OBJECT_ID      = 2025-289B
CENTER_NAME    = EARTH
REF_FRAME      = TEME
TIME_SYSTEM    = UTC
MEAN_ELEMENT_THEORY = SGP/SGP4

EPOCH          = 2025-12-31T04:47:58.367904
MEAN_MOTION    = 15.72071988
ECCENTRICITY   = .0134672
INCLINATION    = 97.5222
RA_OF_ASC_NODE = 71.9280
ARG_OF_PERICENTER = 292.8080
MEAN_ANOMALY   = 65.9004

EPHEMERIS_TYPE = 0
CLASSIFICATION_TYPE = U
NORAD_CAT_ID   = 66989
ELEMENT_SET_NO = 999
REV_AT_EPOCH   = 346
BSTAR          = .68237E-3
MEAN_MOTION_DOT = .155526E-2
MEAN_MOTION_DDOT = .94552E-5

CCSDS_OMM_VERS = 2.0
CREATION_DATE  = 
ORIGINATOR     = 

OBJECT_NAME    = TJS-22
OBJECT_ID      = 2025-290A
CENTER_NAME    = EARTH
REF_FRAME      = TEME
TIME_SYSTEM    = UTC
MEAN_ELEMENT_THEORY = SGP/SGP4

EPOCH          = 2025-12-31T07:57:05.512320
MEAN_MOTION    = 1.00272489
ECCENTRICITY   = .00033306
INCLINATION    = 1.9419
RA_OF_ASC_NODE = 285.0452
ARG_OF_PERICENTER = 344.4396
MEAN_ANOMALY   = 16.2518

EPHEMERIS_TYPE = 0
CLASSIFICATION_TYPE = U
NORAD_CAT_ID   = 66990
ELEMENT_SET_NO = 999
REV_AT_EPOCH   = 34
BSTAR          = 0
MEAN_MOTION_DOT = .12E-6
MEAN_MOTION_DDOT = 0

CCSDS_OMM_VERS = 2.0
CREATION_DATE  = 
ORIGINATOR     = 

OBJECT_NAME    = CZ-3B R/B
OBJECT_ID      = 2025-290B
CENTER_NAME    = EARTH
REF_FRAME      = TEME
TIME_SYSTEM    = UTC
MEAN_ELEMENT_THEORY = SGP/SGP4

EPOCH          = 2025-12-15T17:23:33.043200
MEAN_MOTION    = 2.38388611
ECCENTRICITY   = .7240884
INCLINATION    = 28.4636
RA_OF_ASC_NODE = 300.4666
ARG_OF_PERICENTER = 182.7002
MEAN_ANOMALY   = 168.6250

EPHEMERIS_TYPE = 0
CLASSIFICATION_TYPE = U
NORAD_CAT_ID   = 66991
ELEMENT_SET_NO = 999
REV_AT_EPOCH   = 16
BSTAR          = .75879E-3
MEAN_MOTION_DOT = .57911E-3
MEAN_MOTION_DDOT = -.20514E-6

CCSDS_OMM_VERS = 2.0
CREATION_DATE  = 
ORIGINATOR     = 

OBJECT_NAME    = 2025-292A
OBJECT_ID      = 2025-292A
CENTER_NAME    = EARTH
REF_FRAME      = TEME
TIME_SYSTEM    = UTC
MEAN_ELEMENT_THEORY = SGP/SGP4

EPOCH          = 2025-12-31T15:04:28.132032
MEAN_MOTION    = 15.04676956
ECCENTRICITY   = .00150588
INCLINATION    = 97.6502
RA_OF_ASC_NODE = 77.9937
ARG_OF_PERICENTER = 205.6698
MEAN_ANOMALY   = 154.3782

EPHEMERIS_TYPE = 0
CLASSIFICATION_TYPE = U
NORAD_CAT_ID   = 66993
ELEMENT_SET_NO = 999
REV_AT_EPOCH   = 323
BSTAR          = .64475142E-3
MEAN_MOTION_DOT = .9036E-4
MEAN_MOTION_DDOT = 0

CCSDS_OMM_VERS = 2.0
CREATION_DATE  = 
ORIGINATOR     = 

OBJECT_NAME    = 2025-292B
OBJECT_ID      = 2025-292B
CENTER_NAME    = EARTH
REF_FRAME      = TEME
TIME_SYSTEM    = UTC
MEAN_ELEMENT_THEORY = SGP/SGP4

EPOCH          = 2025-12-31T15:03:29.811168
MEAN_MOTION    = 15.04736311
ECCENTRICITY   = .00148555
INCLINATION    = 97.6514
RA_OF_ASC_NODE = 77.9970
ARG_OF_PERICENTER = 205.9788
MEAN_ANOMALY   = 154.0694

EPHEMERIS_TYPE = 0
CLASSIFICATION_TYPE = U
NORAD_CAT_ID   = 66994
ELEMENT_SET_NO = 999
REV_AT_EPOCH   = 323
BSTAR          = .71793006E-3
MEAN_MOTION_DOT = .10086E-3
MEAN_MOTION_DDOT = 0

CCSDS_OMM_VERS = 2.0
CREATION_DATE  = 
ORIGINATOR     = 

OBJECT_NAME    = 2025-292C
OBJECT_ID      = 2025-292C
CENTER_NAME    = EARTH
REF_FRAME      = TEME
TIME_SYSTEM    = UTC
MEAN_ELEMENT_THEORY = SGP/SGP4

EPOCH          = 2025-12-31T15:03:50.209344
MEAN_MOTION    = 15.04644309
ECCENTRICITY   = .00150299
INCLINATION    = 97.6504
RA_OF_ASC_NODE = 77.9943
ARG_OF_PERICENTER = 204.1535
MEAN_ANOMALY   = 155.8988

EPHEMERIS_TYPE = 0
CLASSIFICATION_TYPE = U
NORAD_CAT_ID   = 66995
ELEMENT_SET_NO = 999
REV_AT_EPOCH   = 323
BSTAR          = .77115731E-3
MEAN_MOTION_DOT = .10813E-3
MEAN_MOTION_DDOT = 0

CCSDS_OMM_VERS = 2.0
CREATION_DATE  = 
ORIGINATOR     = 

OBJECT_NAME    = 2025-292D
OBJECT_ID      = 2025-292D
CENTER_NAME    = EARTH
REF_FRAME      = TEME
TIME_SYSTEM    = UTC
MEAN_ELEMENT_THEORY = SGP/SGP4

EPOCH          = 2025-12-31T15:02:42.897696
MEAN_MOTION    = 15.04723981
ECCENTRICITY   = .00142345
INCLINATION    = 97.6501
RA_OF_ASC_NODE = 77.9941
ARG_OF_PERICENTER = 208.1263
MEAN_ANOMALY   = 151.9196

EPHEMERIS_TYPE = 0
CLASSIFICATION_TYPE = U
NORAD_CAT_ID   = 66996
ELEMENT_SET_NO = 999
REV_AT_EPOCH   = 323
BSTAR          = .54861663E-3
MEAN_MOTION_DOT = .7686E-4
MEAN_MOTION_DDOT = 0

CCSDS_OMM_VERS = 2.0
CREATION_DATE  = 
ORIGINATOR     = 

OBJECT_NAME    = 2025-292E
OBJECT_ID      = 2025-292E
CENTER_NAME    = EARTH
REF_FRAME      = TEME
TIME_SYSTEM    = UTC
MEAN_ELEMENT_THEORY = SGP/SGP4

EPOCH          = 2025-12-31T15:00:42.456960
MEAN_MOTION    = 15.04862067
ECCENTRICITY   = .00145722
INCLINATION    = 97.6523
RA_OF_ASC_NODE = 78.0014
ARG_OF_PERICENTER = 209.5080
MEAN_ANOMALY   = 150.5326

EPHEMERIS_TYPE = 0
CLASSIFICATION_TYPE = U
NORAD_CAT_ID   = 66997
ELEMENT_SET_NO = 999
REV_AT_EPOCH   = 322
BSTAR          = .63557812E-3
MEAN_MOTION_DOT = .895E-4
MEAN_MOTION_DDOT = 0

CCSDS_OMM_VERS = 2.0
CREATION_DATE  = 
ORIGINATOR     = 

OBJECT_NAME    = 2025-292F
OBJECT_ID      = 2025-292F
CENTER_NAME    = EARTH
REF_FRAME      = TEME
TIME_SYSTEM    = UTC
MEAN_ELEMENT_THEORY = SGP/SGP4

EPOCH          = 2025-12-31T14:57:09.792000
MEAN_MOTION    = 15.05069479
ECCENTRICITY   = .0015686
INCLINATION    = 97.6545
RA_OF_ASC_NODE = 78.0099
ARG_OF_PERICENTER = 210.1082
MEAN_ANOMALY   = 149.9244

EPHEMERIS_TYPE = 0
CLASSIFICATION_TYPE = U
NORAD_CAT_ID   = 66998
ELEMENT_SET_NO = 999
REV_AT_EPOCH   = 323
BSTAR          = .76765134E-3
MEAN_MOTION_DOT = .1089E-3
MEAN_MOTION_DDOT = 0

CCSDS_OMM_VERS = 2.0
CREATION_DATE  = 
ORIGINATOR     = 

OBJECT_NAME    = 2025-292G
OBJECT_ID      = 2025-292G
CENTER_NAME    = EARTH
REF_FRAME      = TEME
TIME_SYSTEM    = UTC
MEAN_ELEMENT_THEORY = SGP/SGP4

EPOCH          = 2025-12-31T14:55:51.175776
MEAN_MOTION    = 15.05134281
ECCENTRICITY   = .00151701
INCLINATION    = 97.6555
RA_OF_ASC_NODE = 78.0135
ARG_OF_PERICENTER = 211.9248
MEAN_ANOMALY   = 148.1060

EPHEMERIS_TYPE = 0
CLASSIFICATION_TYPE = U
NORAD_CAT_ID   = 66999
ELEMENT_SET_NO = 999
REV_AT_EPOCH   = 323
BSTAR          = .76384373E-3
MEAN_MOTION_DOT = .10852E-3
MEAN_MOTION_DDOT = 0

CCSDS_OMM_VERS = 2.0
CREATION_DATE  = 
ORIGINATOR     = 

OBJECT_NAME    = 2025-292H
OBJECT_ID      = 2025-292H
CENTER_NAME    = EARTH
REF_FRAME      = TEME
TIME_SYSTEM    = UTC
MEAN_ELEMENT_THEORY = SGP/SGP4

EPOCH          = 2025-12-31T14:55:25.572000
MEAN_MOTION    = 15.05189445
ECCENTRICITY   = .00150848
INCLINATION    = 97.6569
RA_OF_ASC_NODE = 78.0173
ARG_OF_PERICENTER = 211.9236
MEAN_ANOMALY   = 148.1077

EPHEMERIS_TYPE = 0
CLASSIFICATION_TYPE = U
NORAD_CAT_ID   = 67000
ELEMENT_SET_NO = 999
REV_AT_EPOCH   = 310
BSTAR          = .90533272E-3
MEAN_MOTION_DOT = .12896E-3
MEAN_MOTION_DDOT = 0

CCSDS_OMM_VERS = 2.0
CREATION_DATE  = 
ORIGINATOR     = 

OBJECT_NAME    = 2025-292J
OBJECT_ID      = 2025-292J
CENTER_NAME    = EARTH
REF_FRAME      = TEME
TIME_SYSTEM    = UTC
MEAN_ELEMENT_THEORY = SGP/SGP4

EPOCH          = 2025-12-31T13:32:04.801344
MEAN_MOTION    = 15.04547369
ECCENTRICITY   = .00154954
INCLINATION    = 97.6532
RA_OF_ASC_NODE = 77.9339
ARG_OF_PERICENTER = 202.4579
MEAN_ANOMALY   = 157.5970

EPHEMERIS_TYPE = 0
CLASSIFICATION_TYPE = U
NORAD_CAT_ID   = 67001
ELEMENT_SET_NO = 999
REV_AT_EPOCH   = 322
BSTAR          = .80827686E-3
MEAN_MOTION_DOT = .1131E-3
MEAN_MOTION_DDOT = 0

